start=new Date('2023-02-11T00:00:00.000Z').valueOf();
sats=[{"TLE_LINE1":"1 47360U 21005M   23041.27857171  .00010972  00000-0  75411-3 0  9996","MEAN_ELEMENT_THEORY":"SGP4","MEAN_MOTION_DOT":"0.00010972","ECCENTRICITY":"0.00011460","RA_OF_ASC_NODE":"29.8125","ARG_OF_PERICENTER":"97.2901","REF_FRAME":"TEME","FILE":"3785071","NORAD_CAT_ID":"47360","TIME_SYSTEM":"UTC","TLE_LINE2":"2 47360  53.0539  29.8125 0001146  97.2901 262.8218 15.06412235114211","ELEMENT_SET_NO":"999","MEAN_MOTION_DDOT":"0.0000000000000","EPOCH":"2023-02-10T06:41:08.595744","MEAN_MOTION":"15.06412235","DECAY_DATE":null,"EPHEMERIS_TYPE":"0","OBJECT_ID":"2021-005M","LAUNCH_DATE":"2021-01-20","APOAPSIS":"547.970","PERIAPSIS":"546.382","BSTAR":"0.00075411000000","SEMIMAJOR_AXIS":"6925.311","CLASSIFICATION_TYPE":"U","OBJECT_NAME":"STARLINK-2070","OBJECT_TYPE":"PAYLOAD","GP_ID":"225068951","MEAN_ANOMALY":"262.8218","RCS_SIZE":"LARGE","PERIOD":"95.591","INCLINATION":"53.0539","SITE":"AFETR","COUNTRY_CODE":"US","REV_AT_EPOCH":"11421","CENTER_NAME":"EARTH"},{"CENTER_NAME":"EARTH","COUNTRY_CODE":"US","REV_AT_EPOCH":"11413","SITE":"AFETR","INCLINATION":"53.0528","RCS_SIZE":"LARGE","PERIOD":"95.592","MEAN_ANOMALY":"252.9083","GP_ID":"225070202","OBJECT_TYPE":"PAYLOAD","CLASSIFICATION_TYPE":"U","OBJECT_NAME":"STARLINK-2071","BSTAR":"0.00073096000000","SEMIMAJOR_AXIS":"6925.331","PERIAPSIS":"546.167","LAUNCH_DATE":"2021-01-20","APOAPSIS":"548.225","OBJECT_ID":"2021-005N","EPHEMERIS_TYPE":"0","DECAY_DATE":null,"MEAN_MOTION":"15.06405641","EPOCH":"2023-02-10T06:27:13.027392","ELEMENT_SET_NO":"999","MEAN_MOTION_DDOT":"0.0000000000000","TLE_LINE2":"2 47361  53.0528  34.8477 0001486 107.2068 252.9083 15.06405641114133","NORAD_CAT_ID":"47361","TIME_SYSTEM":"UTC","FILE":"3785071","REF_FRAME":"TEME","ARG_OF_PERICENTER":"107.2068","RA_OF_ASC_NODE":"34.8477","ECCENTRICITY":"0.00014860","MEAN_MOTION_DOT":"0.00010624","MEAN_ELEMENT_THEORY":"SGP4","TLE_LINE1":"1 47361U 21005N   23041.26890078  .00010624  00000-0  73096-3 0  9990"},{"CENTER_NAME":"EARTH","REV_AT_EPOCH":"11373","COUNTRY_CODE":"US","INCLINATION":"53.0539","SITE":"AFETR","RCS_SIZE":"LARGE","PERIOD":"95.591","MEAN_ANOMALY":"268.4075","GP_ID":"225070449","OBJECT_TYPE":"PAYLOAD","OBJECT_NAME":"STARLINK-2076","CLASSIFICATION_TYPE":"U","BSTAR":"0.00030204000000","SEMIMAJOR_AXIS":"6925.315","PERIAPSIS":"545.999","APOAPSIS":"548.361","LAUNCH_DATE":"2021-01-20","OBJECT_ID":"2021-005P","EPHEMERIS_TYPE":"0","DECAY_DATE":null,"EPOCH":"2023-02-10T09:07:46.055424","MEAN_MOTION":"15.06410906","MEAN_MOTION_DDOT":"0.0000000000000","ELEMENT_SET_NO":"999","TLE_LINE2":"2 47362  53.0539  64.3587 0001705  91.7109 268.4075 15.06410906113731","NORAD_CAT_ID":"47362","TIME_SYSTEM":"UTC","REF_FRAME":"TEME","FILE":"3785071","ARG_OF_PERICENTER":"91.7109","RA_OF_ASC_NODE":"64.3587","ECCENTRICITY":"0.00017050","MEAN_MOTION_DOT":"0.00004221","TLE_LINE1":"1 47362U 21005P   23041.38039416  .00004221  00000-0  30204-3 0  9995","MEAN_ELEMENT_THEORY":"SGP4"},{"MEAN_MOTION_DOT":"0.00004843","MEAN_ELEMENT_THEORY":"SGP4","TLE_LINE1":"1 47363U 21005Q   23041.38409286  .00004843  00000-0  34381-3 0  9992","ECCENTRICITY":"0.00014330","REF_FRAME":"TEME","FILE":"3785071","NORAD_CAT_ID":"47363","TIME_SYSTEM":"UTC","RA_OF_ASC_NODE":"64.3303","ARG_OF_PERICENTER":"90.1504","TLE_LINE2":"2 47363  53.0550  64.3303 0001433  90.1504 269.9649 15.06399179113732","ELEMENT_SET_NO":"999","MEAN_MOTION_DDOT":"0.0000000000000","EPHEMERIS_TYPE":"0","OBJECT_ID":"2021-005Q","MEAN_MOTION":"15.06399179","EPOCH":"2023-02-10T09:13:05.623104","DECAY_DATE":null,"BSTAR":"0.00034381000000","SEMIMAJOR_AXIS":"6925.351","OBJECT_NAME":"STARLINK-2077","CLASSIFICATION_TYPE":"U","LAUNCH_DATE":"2021-01-20","APOAPSIS":"548.208","PERIAPSIS":"546.224","RCS_SIZE":"LARGE","MEAN_ANOMALY":"269.9649","PERIOD":"95.592","INCLINATION":"53.0550","SITE":"AFETR","OBJECT_TYPE":"PAYLOAD","GP_ID":"225068701","REV_AT_EPOCH":"11373","COUNTRY_CODE":"US","CENTER_NAME":"EARTH"},{"REV_AT_EPOCH":"11374","COUNTRY_CODE":"US","CENTER_NAME":"EARTH","RCS_SIZE":"LARGE","MEAN_ANOMALY":"271.3156","PERIOD":"95.592","INCLINATION":"53.0523","SITE":"AFETR","OBJECT_TYPE":"PAYLOAD","GP_ID":"225069451","BSTAR":"0.00021384000000","SEMIMAJOR_AXIS":"6925.326","CLASSIFICATION_TYPE":"U","OBJECT_NAME":"STARLINK-2081","LAUNCH_DATE":"2021-01-20","APOAPSIS":"548.344","PERIAPSIS":"546.038","EPHEMERIS_TYPE":"0","OBJECT_ID":"2021-005T","MEAN_MOTION":"15.06407474","EPOCH":"2023-02-10T11:25:46.049952","DECAY_DATE":null,"TLE_LINE2":"2 47366  53.0523  63.9297 0001665  88.8024 271.3156 15.06407474113749","ELEMENT_SET_NO":"999","MEAN_MOTION_DDOT":"0.0000000000000","FILE":"3785071","REF_FRAME":"TEME","NORAD_CAT_ID":"47366","TIME_SYSTEM":"UTC","RA_OF_ASC_NODE":"63.9297","ARG_OF_PERICENTER":"88.8024","ECCENTRICITY":"0.00016650","MEAN_MOTION_DOT":"0.00002906","TLE_LINE1":"1 47366U 21005T   23041.47622743  .00002906  00000-0  21384-3 0  9997","MEAN_ELEMENT_THEORY":"SGP4"},{"ECCENTRICITY":"0.00014990","MEAN_ELEMENT_THEORY":"SGP4","TLE_LINE1":"1 47367U 21005U   23041.36934440  .00002678  00000-0  19859-3 0  9996","MEAN_MOTION_DOT":"0.00002678","TLE_LINE2":"2 47367  53.0561  64.4032 0001499 103.5200 256.5956 15.06397695113736","ELEMENT_SET_NO":"999","MEAN_MOTION_DDOT":"0.0000000000000","RA_OF_ASC_NODE":"64.4032","ARG_OF_PERICENTER":"103.5200","REF_FRAME":"TEME","FILE":"3785071","NORAD_CAT_ID":"47367","TIME_SYSTEM":"UTC","APOAPSIS":"548.259","LAUNCH_DATE":"2021-01-20","PERIAPSIS":"546.183","BSTAR":"0.00019859000000","SEMIMAJOR_AXIS":"6925.356","CLASSIFICATION_TYPE":"U","OBJECT_NAME":"STARLINK-2082","EPOCH":"2023-02-10T08:51:51.356160","MEAN_MOTION":"15.06397695","DECAY_DATE":null,"EPHEMERIS_TYPE":"0","OBJECT_ID":"2021-005U","COUNTRY_CODE":"US","REV_AT_EPOCH":"11373","CENTER_NAME":"EARTH","OBJECT_TYPE":"PAYLOAD","GP_ID":"225069703","MEAN_ANOMALY":"256.5956","RCS_SIZE":"LARGE","PERIOD":"95.592","SITE":"AFETR","INCLINATION":"53.0561"},{"TLE_LINE2":"2 47368  53.0547  64.1435 0001678  98.6945 261.4234 15.06401662113749","ELEMENT_SET_NO":"999","MEAN_MOTION_DDOT":"0.0000000000000","TIME_SYSTEM":"UTC","NORAD_CAT_ID":"47368","REF_FRAME":"TEME","FILE":"3785071","ARG_OF_PERICENTER":"98.6945","RA_OF_ASC_NODE":"64.1435","ECCENTRICITY":"0.00016780","MEAN_MOTION_DOT":"0.00002984","MEAN_ELEMENT_THEORY":"SGP4","TLE_LINE1":"1 47368U 21005V   23041.42831842  .00002984  00000-0  21914-3 0  9991","CENTER_NAME":"EARTH","COUNTRY_CODE":"US","REV_AT_EPOCH":"11374","PERIOD":"95.592","RCS_SIZE":"LARGE","MEAN_ANOMALY":"261.4234","SITE":"AFETR","INCLINATION":"53.0547","GP_ID":"225069950","OBJECT_TYPE":"PAYLOAD","SEMIMAJOR_AXIS":"6925.343","BSTAR":"0.00021914000000","OBJECT_NAME":"STARLINK-2084","CLASSIFICATION_TYPE":"U","LAUNCH_DATE":"2021-01-20","APOAPSIS":"548.371","PERIAPSIS":"546.046","OBJECT_ID":"2021-005V","EPHEMERIS_TYPE":"0","MEAN_MOTION":"15.06401662","EPOCH":"2023-02-10T10:16:46.711488","DECAY_DATE":null},{"REV_AT_EPOCH":"11400","COUNTRY_CODE":"US","CENTER_NAME":"EARTH","OBJECT_TYPE":"PAYLOAD","GP_ID":"225069201","MEAN_ANOMALY":"262.6154","RCS_SIZE":"LARGE","PERIOD":"95.592","SITE":"AFETR","INCLINATION":"53.0577","APOAPSIS":"548.140","LAUNCH_DATE":"2021-01-20","PERIAPSIS":"546.264","BSTAR":"0.00014114000000","SEMIMAJOR_AXIS":"6925.337","CLASSIFICATION_TYPE":"U","OBJECT_NAME":"STARLINK-2085","EPOCH":"2023-02-10T07:12:17.392320","MEAN_MOTION":"15.06403803","DECAY_DATE":null,"EPHEMERIS_TYPE":"0","OBJECT_ID":"2021-005W","TLE_LINE2":"2 47369  53.0577  44.6986 0001355  97.4989 262.6154 15.06403803114007","MEAN_MOTION_DDOT":"0.0000000000000","ELEMENT_SET_NO":"999","RA_OF_ASC_NODE":"44.6986","ARG_OF_PERICENTER":"97.4989","FILE":"3785071","REF_FRAME":"TEME","NORAD_CAT_ID":"47369","TIME_SYSTEM":"UTC","ECCENTRICITY":"0.00013550","TLE_LINE1":"1 47369U 21005W   23041.30020130  .00001822  00000-0  14114-3 0  9993","MEAN_ELEMENT_THEORY":"SGP4","MEAN_MOTION_DOT":"0.00001822"},{"REV_AT_EPOCH":"11431","COUNTRY_CODE":"US","CENTER_NAME":"EARTH","OBJECT_TYPE":"PAYLOAD","GP_ID":"225068952","INCLINATION":"53.0533","SITE":"AFETR","RCS_SIZE":"LARGE","PERIOD":"95.590","MEAN_ANOMALY":"273.6284","PERIAPSIS":"546.273","LAUNCH_DATE":"2021-01-20","APOAPSIS":"547.917","OBJECT_NAME":"STARLINK-2086","CLASSIFICATION_TYPE":"U","SEMIMAJOR_AXIS":"6925.230","BSTAR":"0.00302410000000","DECAY_DATE":null,"MEAN_MOTION":"15.06438781","EPOCH":"2023-02-10T10:59:14.112672","EPHEMERIS_TYPE":"0","OBJECT_ID":"2021-005X","ELEMENT_SET_NO":"999","MEAN_MOTION_DDOT":"0.0000000000000","TLE_LINE2":"2 47370  53.0533  24.0096 0001187  86.4841 273.6284 15.06438781114316","RA_OF_ASC_NODE":"24.0096","ARG_OF_PERICENTER":"86.4841","FILE":"3785071","REF_FRAME":"TEME","TIME_SYSTEM":"UTC","NORAD_CAT_ID":"47370","ECCENTRICITY":"0.00011870","TLE_LINE1":"1 47370U 21005X   23041.45780223  .00045099  00000-0  30241-2 0  9999","MEAN_ELEMENT_THEORY":"SGP4","MEAN_MOTION_DOT":"0.00045099"},{"RA_OF_ASC_NODE":"64.3737","ARG_OF_PERICENTER":"96.5836","FILE":"3785071","REF_FRAME":"TEME","NORAD_CAT_ID":"47371","TIME_SYSTEM":"UTC","TLE_LINE2":"2 47371  53.0531  64.3737 0001366  96.5836 263.5309 15.06404383113731","MEAN_MOTION_DDOT":"0.0000000000000","ELEMENT_SET_NO":"999","TLE_LINE1":"1 47371U 21005Y   23041.37671335  .00004635  00000-0  32978-3 0  9995","MEAN_ELEMENT_THEORY":"SGP4","MEAN_MOTION_DOT":"0.00004635","ECCENTRICITY":"0.00013660","OBJECT_TYPE":"PAYLOAD","GP_ID":"225070203","PERIOD":"95.592","RCS_SIZE":"LARGE","MEAN_ANOMALY":"263.5309","SITE":"AFETR","INCLINATION":"53.0531","REV_AT_EPOCH":"11373","COUNTRY_CODE":"US","CENTER_NAME":"EARTH","MEAN_MOTION":"15.06404383","EPOCH":"2023-02-10T09:02:28.033440","DECAY_DATE":null,"EPHEMERIS_TYPE":"0","OBJECT_ID":"2021-005Y","LAUNCH_DATE":"2021-01-20","APOAPSIS":"548.146","PERIAPSIS":"546.254","BSTAR":"0.00032978000000","SEMIMAJOR_AXIS":"6925.335","CLASSIFICATION_TYPE":"U","OBJECT_NAME":"STARLINK-2088"}];
